{
"type": "FeatureCollection",
"crs": { "type": "name", "properties": { "name": "urn:ogc:def:crs:OGC:1.3:CRS84" } },
                                                                                
"features": [
{ "type": "Feature", "properties": { "id": 279644098, "name": "Wynkoop Brewing Company", "addr:housenumber": "1634", "addr:street": "18th Street", "addr:postcode": "80202", "addr:city": "Denver", "amenity": "pub", "cuisine": "american" }, "geometry": { "type": "Point", "coordinates": [ -104.9984831, 39.7535446 ] } },
{ "type": "Feature", "properties": { "id": 354003783, "name": "Breckenridge Brewery", "addr:housenumber": "2220", "addr:street": "Blake Street", "addr:postcode": "80205", "addr:city": "Denver", "amenity": "pub", "cuisine": null }, "geometry": { "type": "Point", "coordinates": [ -104.9912425, 39.7563104 ] } },
{ "type": "Feature", "properties": { "id": 366394521, "name": "Cactus Club", "addr:housenumber": "1621", "addr:street": "Blake Street", "addr:postcode": "80202", "addr:city": "Denver", "amenity": "restaurant", "cuisine": null }, "geometry": { "type": "Point", "coordinates": [ -104.9989812, 39.7509862 ] } },
{ "type": "Feature", "properties": { "id": 409795615, "name": "BD's Mongolian Grill", "addr:housenumber": "1620", "addr:street": "Wazee Street", "addr:postcode": "80202", "addr:city": "Denver", "amenity": "restaurant", "cuisine": null }, "geometry": { "type": "Point", "coordinates": [ -104.9995218, 39.7514618 ] } },
{ "type": "Feature", "properties": { "id": 415817076, "name": "The Tilted Kilt", "addr:housenumber": "1201", "addr:street": "16th Street", "addr:postcode": "80202", "addr:city": "Denver", "amenity": "restaurant", "cuisine": null }, "geometry": { "type": "Point", "coordinates": [ -104.9961103, 39.7484537 ] } },
{ "type": "Feature", "properties": { "id": 415817085, "name": "Anthony's Pizza & Pasta", "addr:housenumber": "1780", "addr:street": "16th Street", "addr:postcode": "80202", "addr:city": "Denver", "amenity": "restaurant", "cuisine": "pizza" }, "geometry": { "type": "Point", "coordinates": [ -105.0017076, 39.7522919 ] } },
{ "type": "Feature", "properties": { "id": 442621199, "name": "Machete Tequila + Tacos", "addr:housenumber": "1730", "addr:street": "Wynkoop Street", "addr:postcode": "80202", "addr:city": "Denver", "amenity": "restaurant", "cuisine": "mexican" }, "geometry": { "type": "Point", "coordinates": [ -104.9989234, 39.7532115 ] } },
{ "type": "Feature", "properties": { "id": 442621200, "name": "Morton's", "addr:housenumber": "1710", "addr:street": "Wynkoop Street", "addr:postcode": "80202", "addr:city": "Denver", "amenity": "restaurant", "cuisine": null }, "geometry": { "type": "Point", "coordinates": [ -104.9990114, 39.7531302 ] } },
{ "type": "Feature", "properties": { "id": 442621201, "name": "Venice Ristorante", "addr:housenumber": "1700", "addr:street": "Wynkoop Street", "addr:postcode": "80202", "addr:city": "Denver", "amenity": "restaurant", "cuisine": null }, "geometry": { "type": "Point", "coordinates": [ -104.9994126, 39.7528552 ] } },
{ "type": "Feature", "properties": { "id": 442621203, "name": "Rodizio Grill", "addr:housenumber": "1801", "addr:street": "Wynkoop St", "addr:postcode": "80202", "addr:city": "Denver", "amenity": "restaurant", "cuisine": null }, "geometry": { "type": "Point", "coordinates": [ -104.9984955, 39.7541097 ] } },
{ "type": "Feature", "properties": { "id": 442621208, "name": "Sullivan's Steak House", "addr:housenumber": "1745", "addr:street": "Wazee Street", "addr:postcode": "80202", "addr:city": "Denver", "amenity": "restaurant", "cuisine": null }, "geometry": { "type": "Point", "coordinates": [ -104.9980219, 39.7530773 ] } },
{ "type": "Feature", "properties": { "id": 442621211, "name": "Cruise Room", "addr:housenumber": "1600", "addr:street": "17th Street", "addr:postcode": "80202", "addr:city": "Denver", "amenity": "bar", "cuisine": null }, "geometry": { "type": "Point", "coordinates": [ -104.9991199, 39.7521816 ] } },
{ "type": "Feature", "properties": { "id": 442621216, "name": "McCormick's Fish House & Bar", "addr:housenumber": "1659", "addr:street": "Wazee Street", "addr:postcode": "80202", "addr:city": "Denver", "amenity": "restaurant", "cuisine": null }, "geometry": { "type": "Point", "coordinates": [ -104.9992248, 39.7520356 ] } },
{ "type": "Feature", "properties": { "id": 442621219, "name": "Jax Fish House", "addr:housenumber": "1539", "addr:street": "17th Street", "addr:postcode": "80202", "addr:city": "Denver", "amenity": "restaurant", "cuisine": null }, "geometry": { "type": "Point", "coordinates": [ -104.9985371, 39.7521887 ] } },
{ "type": "Feature", "properties": { "id": 442621222, "name": "Denver Chop House & Brewery", "addr:housenumber": "1735", "addr:street": "19th Street", "addr:postcode": "80202", "addr:city": "Denver", "amenity": "restaurant", "cuisine": null }, "geometry": { "type": "Point", "coordinates": [ -104.9972835, 39.754886 ] } },
{ "type": "Feature", "properties": { "id": 442621224, "name": "The Keg Steakhouse & Bar", "addr:housenumber": "1890", "addr:street": "Wynkoop Street", "addr:postcode": "80202", "addr:city": "Denver", "amenity": "restaurant", "cuisine": "steak_house" }, "geometry": { "type": "Point", "coordinates": [ -104.9972926, 39.7544851 ] } },
{ "type": "Feature", "properties": { "id": 442771785, "name": "Fogo de Chao", "addr:housenumber": "1513", "addr:street": "Wynkoop Street", "addr:postcode": "80202", "addr:city": "Denver", "amenity": "restaurant", "cuisine": "brazilian" }, "geometry": { "type": "Point", "coordinates": [ -105.002115, 39.7512211 ] } },
{ "type": "Feature", "properties": { "id": 534055815, "name": "Mangiamo Pronto!", "addr:housenumber": "1601", "addr:street": "17th Street", "addr:postcode": "80202", "addr:city": "Denver", "amenity": "restaurant", "cuisine": "italian" }, "geometry": { "type": "Point", "coordinates": [ -104.9988491, 39.7523275 ] } },
{ "type": "Feature", "properties": { "id": 571656533, "name": "Ice House Tavern", "addr:housenumber": "1801", "addr:street": "Wynkoop St", "addr:postcode": "80202", "addr:city": "Denver", "amenity": "restaurant", "cuisine": null }, "geometry": { "type": "Point", "coordinates": [ -104.998116, 39.754368 ] } },
{ "type": "Feature", "properties": { "id": 581275861, "name": "Starbucks Coffee", "addr:housenumber": "633", "addr:street": "17th Street", "addr:postcode": "80202", "addr:city": "Denver", "amenity": "cafe", "cuisine": null }, "geometry": { "type": "Point", "coordinates": [ -104.9897638, 39.7468745 ] } },
{ "type": "Feature", "properties": { "id": 590800892, "name": "Starbucks Coffee", "addr:housenumber": "999", "addr:street": "18th Street", "addr:postcode": "80202", "addr:city": "Denver", "amenity": "cafe", "cuisine": null }, "geometry": { "type": "Point", "coordinates": [ -104.9913758, 39.7488108 ] } },
{ "type": "Feature", "properties": { "id": 601198560, "name": "Scruffy Murphy's", "addr:housenumber": "2030", "addr:street": "Larimer St", "addr:postcode": "80205", "addr:city": "Denver", "amenity": "pub", "cuisine": null }, "geometry": { "type": "Point", "coordinates": [ -104.9919277, 39.7532605 ] } },
{ "type": "Feature", "properties": { "id": 637836124, "name": "Spill Lounge", "addr:housenumber": "1410", "addr:street": "Market Street", "addr:postcode": "80202", "addr:city": "Denver", "amenity": "bar", "cuisine": null }, "geometry": { "type": "Point", "coordinates": [ -105.0003117, 39.7480938 ] } },
{ "type": "Feature", "properties": { "id": 637836727, "name": "Maloney's Tavern", "addr:housenumber": "1432", "addr:street": "Market Street", "addr:postcode": "80202", "addr:city": "Denver", "amenity": "pub", "cuisine": null }, "geometry": { "type": "Point", "coordinates": [ -104.9999563, 39.7483828 ] } },
{ "type": "Feature", "properties": { "id": 637836815, "name": "Nallen's Irish Pub", "addr:housenumber": "1429", "addr:street": "Market Street", "addr:postcode": "80202", "addr:city": "Denver", "amenity": "pub", "cuisine": null }, "geometry": { "type": "Point", "coordinates": [ -105.0002702, 39.7485516 ] } },
{ "type": "Feature", "properties": { "id": 637895618, "name": "P.F. Chang's", "addr:housenumber": "1415", "addr:street": "Market Street", "addr:postcode": "80202", "addr:city": "Denver", "amenity": "restaurant", "cuisine": "asian" }, "geometry": { "type": "Point", "coordinates": [ -104.999601, 39.749357 ] } },
{ "type": "Feature", "properties": { "id": 835947530, "name": "Starbucks", "addr:housenumber": "1490", "addr:street": "16th Street", "addr:postcode": "80202", "addr:city": "Denver", "amenity": "cafe", "cuisine": null }, "geometry": { "type": "Point", "coordinates": [ -104.999135, 39.750323 ] } },
{ "type": "Feature", "properties": { "id": 835987861, "name": "H-Burger", "addr:housenumber": "1555", "addr:street": "Blake Street", "addr:postcode": "80202", "addr:city": "Denver", "amenity": "restaurant", "cuisine": "burger" }, "geometry": { "type": "Point", "coordinates": [ -104.9994835, 39.7505049 ] } },
{ "type": "Feature", "properties": { "id": 892574571, "name": "Mellow Mushroom", "addr:housenumber": "1201", "addr:street": "16th Street", "addr:postcode": "80202", "addr:city": null, "amenity": "restaurant", "cuisine": "pizza" }, "geometry": { "type": "Point", "coordinates": [ -104.9966794, 39.748887 ] } },
{ "type": "Feature", "properties": { "id": 910282281, "name": "Palm Restaurant", "addr:housenumber": "1672", "addr:street": "Lawrence Street", "addr:postcode": "80202", "addr:city": "Denver", "amenity": "restaurant", "cuisine": null }, "geometry": { "type": "Point", "coordinates": [ -104.9953119, 39.7487608 ] } },
{ "type": "Feature", "properties": { "id": 911375836, "name": "Celtic Tavern", "addr:housenumber": "1801", "addr:street": "Blake Street", "addr:postcode": "80202", "addr:city": "Denver", "amenity": "bar", "cuisine": null }, "geometry": { "type": "Point", "coordinates": [ -104.996747, 39.7526565 ] } },
{ "type": "Feature", "properties": { "id": 915218451, "name": "Falling Rock Tap House", "addr:housenumber": "1919", "addr:street": "Blake Street", "addr:postcode": "80202", "addr:city": "Denver", "amenity": "bar", "cuisine": null }, "geometry": { "type": "Point", "coordinates": [ -104.9954088, 39.7538791 ] } },
{ "type": "Feature", "properties": { "id": 947575135, "name": "ChoLon Bistro", "addr:housenumber": "1555", "addr:street": "Blake Street", "addr:postcode": "80202", "addr:city": "Denver", "amenity": "restaurant", "cuisine": "asian" }, "geometry": { "type": "Point", "coordinates": [ -104.9987671, 39.7507162 ] } },
{ "type": "Feature", "properties": { "id": 1030169097, "name": "Wahoo's Fish Taco", "addr:housenumber": "1517", "addr:street": "Blake Street", "addr:postcode": "80202", "addr:city": "Denver", "amenity": "restaurant", "cuisine": "fish" }, "geometry": { "type": "Point", "coordinates": [ -105.0000963, 39.7500306 ] } },
{ "type": "Feature", "properties": { "id": 1030169106, "name": "Rio Grande Mexican", "addr:housenumber": "1525", "addr:street": "Blake Street", "addr:postcode": "80202", "addr:city": "Denver", "amenity": "restaurant", "cuisine": null }, "geometry": { "type": "Point", "coordinates": [ -104.9999407, 39.7501409 ] } },
{ "type": "Feature", "properties": { "id": 1040560173, "name": "Sam's #3", "addr:housenumber": "1500", "addr:street": "Curtis Street", "addr:postcode": "80202", "addr:city": "Denver", "amenity": "restaurant", "cuisine": null }, "geometry": { "type": "Point", "coordinates": [ -104.9956654, 39.7462185 ] } },
{ "type": "Feature", "properties": { "id": 1040578554, "name": "Prime Steakhouse", "addr:housenumber": "1060", "addr:street": "15th Street", "addr:postcode": "80202", "addr:city": "Denver", "amenity": "restaurant", "cuisine": "steakhouse" }, "geometry": { "type": "Point", "coordinates": [ -104.99687, 39.7467311 ] } },
{ "type": "Feature", "properties": { "id": 1040578559, "name": "La Château Fondue", "addr:housenumber": "1040", "addr:street": "15th Street", "addr:postcode": "80202", "addr:city": "Denver", "amenity": "restaurant", "cuisine": null }, "geometry": { "type": "Point", "coordinates": [ -104.9966688, 39.746573 ] } },
{ "type": "Feature", "properties": { "id": 1081260662, "name": "Osteria Marco", "addr:housenumber": "1453", "addr:street": "Larimer Street", "addr:postcode": "80202", "addr:city": "Denver", "amenity": "restaurant", "cuisine": "pizza" }, "geometry": { "type": "Point", "coordinates": [ -104.999091, 39.7481136 ] } },
{ "type": "Feature", "properties": { "id": 1152977151, "name": "Giggling Grizzly Bar & Grill", "addr:housenumber": "1320", "addr:street": "20th Street", "addr:postcode": "80202", "addr:city": "Denver", "amenity": "pub", "cuisine": null }, "geometry": { "type": "Point", "coordinates": [ -104.9932857, 39.7532653 ] } },
{ "type": "Feature", "properties": { "id": 1152977294, "name": "Lodo's Bar & Grill", "addr:housenumber": "1946", "addr:street": "Market Street", "addr:postcode": "80202", "addr:city": "Denver", "amenity": "pub", "cuisine": null }, "geometry": { "type": "Point", "coordinates": [ -104.9935262, 39.753134 ] } },
{ "type": "Feature", "properties": { "id": 1156664597, "name": "8 Rivers Cafe", "addr:housenumber": "1550", "addr:street": "Blake Street", "addr:postcode": "80203", "addr:city": "Denver", "amenity": "restaurant", "cuisine": "Caribbean" }, "geometry": { "type": "Point", "coordinates": [ -104.9994059, 39.7501153 ] } },
{ "type": "Feature", "properties": { "id": 1160420448, "name": "The Old Spaghetti Factory", "addr:housenumber": "1215", "addr:street": "18th Street", "addr:postcode": "80202", "addr:city": "Denver", "amenity": "restaurant", "cuisine": null }, "geometry": { "type": "Point", "coordinates": [ -104.9941776, 39.750732 ] } },
{ "type": "Feature", "properties": { "id": 1197010167, "name": "Vesta Dipping Grill", "addr:housenumber": "1822", "addr:street": "Blake Street", "addr:postcode": "80202", "addr:city": "Denver", "amenity": "restaurant", "cuisine": null }, "geometry": { "type": "Point", "coordinates": [ -104.9961434, 39.7527039 ] } },
{ "type": "Feature", "properties": { "id": 1197010205, "name": "Ninth Door", "addr:housenumber": "1808", "addr:street": "Blake Street", "addr:postcode": "80202", "addr:city": "Denver", "amenity": "restaurant", "cuisine": null }, "geometry": { "type": "Point", "coordinates": [ -104.9963715, 39.7525163 ] } },
{ "type": "Feature", "properties": { "id": 1237585411, "name": "Organixx", "addr:housenumber": "1520", "addr:street": "Blake Street", "addr:postcode": "80202", "addr:city": "Denver", "amenity": "restaurant", "cuisine": "sandwich" }, "geometry": { "type": "Point", "coordinates": [ -104.9997952, 39.7498523 ] } },
{ "type": "Feature", "properties": { "id": 1237587473, "name": "Blake Street Vault", "addr:housenumber": "1526", "addr:street": "Blake Street", "addr:postcode": "80202", "addr:city": "Denver", "amenity": "bar", "cuisine": null }, "geometry": { "type": "Point", "coordinates": [ -104.9997171, 39.7498936 ] } },
{ "type": "Feature", "properties": { "id": 1237632572, "name": "McLoughlin's Restaurant and Bar", "addr:housenumber": "2100", "addr:street": "16th Street", "addr:postcode": "80202", "addr:city": "Denver", "amenity": "restaurant", "cuisine": "american" }, "geometry": { "type": "Point", "coordinates": [ -105.004617, 39.7545387 ] } },
{ "type": "Feature", "properties": { "id": 1237659981, "name": "Freshcraft", "addr:housenumber": "1530", "addr:street": "Blake Street", "addr:postcode": "80202", "addr:city": "Denver", "amenity": "bar", "cuisine": null }, "geometry": { "type": "Point", "coordinates": [ -104.9996514, 39.7499441 ] } },
{ "type": "Feature", "properties": { "id": 1271250713, "name": "Delectable Egg", "addr:housenumber": "1642", "addr:street": "Market Street", "addr:postcode": "80202", "addr:city": "Denver", "amenity": "restaurant", "cuisine": "american" }, "geometry": { "type": "Point", "coordinates": [ -104.9973794, 39.7503427 ] } },
{ "type": "Feature", "properties": { "id": 1271250717, "name": "Double Daughter's Salotto", "addr:housenumber": "1632", "addr:street": "Market Street", "addr:postcode": "80202", "addr:city": "Denver", "amenity": "restaurant", "cuisine": null }, "geometry": { "type": "Point", "coordinates": [ -104.9973555, 39.7501455 ] } },
{ "type": "Feature", "properties": { "id": 1271259067, "name": "1515 Restaurant", "addr:housenumber": "1515", "addr:street": "Market Street", "addr:postcode": "80202", "addr:city": "Denver", "amenity": "restaurant", "cuisine": null }, "geometry": { "type": "Point", "coordinates": [ -104.9992611, 39.7493389 ] } },
{ "type": "Feature", "properties": { "id": 1271260337, "name": "Pour House Pub", "addr:housenumber": "1435", "addr:street": "Market Street", "addr:postcode": "80202", "addr:city": "Denver", "amenity": "pub", "cuisine": null }, "geometry": { "type": "Point", "coordinates": [ -105.0002085, 39.7486022 ] } },
{ "type": "Feature", "properties": { "id": 1271278975, "name": "Swing Thai", "addr:housenumber": "1612", "addr:street": "Wazee Street", "addr:postcode": "80202", "addr:city": "Denver", "amenity": "restaurant", "cuisine": "thai" }, "geometry": { "type": "Point", "coordinates": [ -104.9994674, 39.7511668 ] } },
{ "type": "Feature", "properties": { "id": 1271282330, "name": "The Tavern Downtown", "addr:housenumber": "1949", "addr:street": "Market Street", "addr:postcode": "80202", "addr:city": "Denver", "amenity": "pub", "cuisine": null }, "geometry": { "type": "Point", "coordinates": [ -104.9939047, 39.7535138 ] } },
{ "type": "Feature", "properties": { "id": 1271282331, "name": "Jackson's", "addr:housenumber": "1520", "addr:street": "20th Street", "addr:postcode": "80202", "addr:city": "Denver", "amenity": "bar", "cuisine": null }, "geometry": { "type": "Point", "coordinates": [ -104.9951781, 39.7544142 ] } },
{ "type": "Feature", "properties": { "id": 1271284262, "name": "Sports Column", "addr:housenumber": "1930", "addr:street": "Blake Street", "addr:postcode": "80202", "addr:city": "Denver", "amenity": "pub", "cuisine": null }, "geometry": { "type": "Point", "coordinates": [ -104.9948797, 39.7536498 ] } },
{ "type": "Feature", "properties": { "id": 1283074957, "name": "Cheba Hut", "addr:housenumber": "1531", "addr:street": "Champa Street", "addr:postcode": "80202", "addr:city": "Denver", "amenity": "restaurant", "cuisine": "sandwich" }, "geometry": { "type": "Point", "coordinates": [ -104.9947686, 39.7460817 ] } },
{ "type": "Feature", "properties": { "id": 1295168455, "name": "Starbucks", "addr:housenumber": "1512", "addr:street": "Larimer Street", "addr:postcode": "80202", "addr:city": "Denver", "amenity": "cafe", "cuisine": null }, "geometry": { "type": "Point", "coordinates": [ -104.9970049, 39.7483856 ] } },
{ "type": "Feature", "properties": { "id": 1295168474, "name": "Zengo", "addr:housenumber": null, "addr:street": null, "addr:postcode": null, "addr:city": null, "amenity": "restaurant", "cuisine": "asian" }, "geometry": { "type": "Point", "coordinates": [ -105.0045121, 39.7551331 ] } },
{ "type": "Feature", "properties": { "id": 1303790442, "name": "Ted's Montana Grill", "addr:housenumber": "1401", "addr:street": "Larimer Street", "addr:postcode": "80202", "addr:city": "Denver", "amenity": "restaurant", "cuisine": "steak_house" }, "geometry": { "type": "Point", "coordinates": [ -104.9997941, 39.7475849 ] } },
{ "type": "Feature", "properties": { "id": 1303790445, "name": "Tamayo", "addr:housenumber": "1400", "addr:street": "Larimer Street", "addr:postcode": "80202", "addr:city": "Denver", "amenity": "restaurant", "cuisine": "mexican" }, "geometry": { "type": "Point", "coordinates": [ -104.9995858, 39.7473359 ] } },
{ "type": "Feature", "properties": { "id": 1303797963, "name": "Starbucks", "addr:housenumber": "1406", "addr:street": "Larimer Street", "addr:postcode": "80202", "addr:city": "Denver", "amenity": "cafe", "cuisine": null }, "geometry": { "type": "Point", "coordinates": [ -104.9994493, 39.7474365 ] } },
{ "type": "Feature", "properties": { "id": 1333952029, "name": "D'Corazon", "addr:housenumber": "1530 #C", "addr:street": "Blake Street", "addr:postcode": "80202", "addr:city": "Denver", "amenity": "restaurant", "cuisine": "mexican" }, "geometry": { "type": "Point", "coordinates": [ -104.9995213, 39.7500348 ] } },
{ "type": "Feature", "properties": { "id": 1334018841, "name": "The Capital Grille", "addr:housenumber": "1450", "addr:street": "Larimer Street", "addr:postcode": "80202", "addr:city": "Denver", "amenity": "restaurant", "cuisine": "steak_house" }, "geometry": { "type": "Point", "coordinates": [ -104.9988272, 39.7479212 ] } },
{ "type": "Feature", "properties": { "id": 1334056354, "name": "Bistro Vendôme", "addr:housenumber": "1420", "addr:street": "Larimer Street", "addr:postcode": "80202", "addr:city": "Denver", "amenity": "restaurant", "cuisine": "french" }, "geometry": { "type": "Point", "coordinates": [ -104.9989671, 39.7474866 ] } },
{ "type": "Feature", "properties": { "id": 1334060333, "name": "Cru Wine Bar", "addr:housenumber": "1442", "addr:street": "Larimer Street", "addr:postcode": "80202", "addr:city": "Denver", "amenity": "bar", "cuisine": null }, "geometry": { "type": "Point", "coordinates": [ -104.9988799, 39.7478765 ] } },
{ "type": "Feature", "properties": { "id": 1358661932, "name": "Green Fine Salad Company", "addr:housenumber": "1201", "addr:street": "16th Street", "addr:postcode": "80202", "addr:city": "Denver", "amenity": "restaurant", "cuisine": null }, "geometry": { "type": "Point", "coordinates": [ -104.9959397, 39.7484268 ] } },
{ "type": "Feature", "properties": { "id": 1360325068, "name": "Blake Street Tavern", "addr:housenumber": "2301", "addr:street": "Blake Street", "addr:postcode": null, "addr:city": "Denver", "amenity": "restaurant", "cuisine": "american" }, "geometry": { "type": "Point", "coordinates": [ -104.9909457, 39.7574785 ] } },
{ "type": "Feature", "properties": { "id": 1362253956, "name": "Smashburger", "addr:housenumber": "1201", "addr:street": "16th Street", "addr:postcode": "80202", "addr:city": "Denver", "amenity": "restaurant", "cuisine": null }, "geometry": { "type": "Point", "coordinates": [ -104.9968838, 39.7490345 ] } },
{ "type": "Feature", "properties": { "id": 1364928480, "name": "Wazee Supper Club", "addr:housenumber": "1600", "addr:street": "15th Street", "addr:postcode": "80202", "addr:city": "Denver", "amenity": "restaurant", "cuisine": null }, "geometry": { "type": "Point", "coordinates": [ -105.0015603, 39.750293 ] } },
{ "type": "Feature", "properties": { "id": 1364957595, "name": "The Wine Loft", "addr:housenumber": "1527", "addr:street": "Wazee Street", "addr:postcode": "80202", "addr:city": "Denver", "amenity": "bar", "cuisine": null }, "geometry": { "type": "Point", "coordinates": [ -105.0008429, 39.7508338 ] } },
{ "type": "Feature", "properties": { "id": 1381171677, "name": "Margs Taco Bistro", "addr:housenumber": "1519", "addr:street": "Wynkoop Street", "addr:postcode": "80202", "addr:city": "Denver", "amenity": "restaurant", "cuisine": null }, "geometry": { "type": "Point", "coordinates": [ -105.0017986, 39.7514934 ] } },
{ "type": "Feature", "properties": { "id": 1393657198, "name": "Ink Coffee", "addr:housenumber": "1200", "addr:street": "17th Street", "addr:postcode": "80202", "addr:city": "Denver", "amenity": "cafe", "cuisine": null }, "geometry": { "type": "Point", "coordinates": [ -104.9962463, 39.7494311 ] } },
{ "type": "Feature", "properties": { "id": 1393662038, "name": "Crepes 'N Crepes", "addr:housenumber": "1512", "addr:street": "Larimer Street", "addr:postcode": "80202", "addr:city": "Denver", "amenity": "restaurant", "cuisine": null }, "geometry": { "type": "Point", "coordinates": [ -104.9974942, 39.7485876 ] } },
{ "type": "Feature", "properties": { "id": 1393667105, "name": "Cafe Colore", "addr:housenumber": "1512", "addr:street": "Larimer Street", "addr:postcode": "80202", "addr:city": "Denver", "amenity": "restaurant", "cuisine": "Italian" }, "geometry": { "type": "Point", "coordinates": [ -104.9980239, 39.7484577 ] } },
{ "type": "Feature", "properties": { "id": 1393667106, "name": "Red Square Euro Bistro", "addr:housenumber": "1512", "addr:street": "Larimer Street", "addr:postcode": "80202", "addr:city": "Denver", "amenity": "restaurant", "cuisine": null }, "geometry": { "type": "Point", "coordinates": [ -104.9974788, 39.7482968 ] } },
{ "type": "Feature", "properties": { "id": 1393667111, "name": "Tryst", "addr:housenumber": null, "addr:street": null, "addr:postcode": null, "addr:city": null, "amenity": "bar", "cuisine": null }, "geometry": { "type": "Point", "coordinates": [ -104.9979812, 39.7479851 ] } },
{ "type": "Feature", "properties": { "id": 1393667112, "name": "Sushi Han", "addr:housenumber": "1512", "addr:street": "Larimer Street", "addr:postcode": "80202", "addr:city": "Denver", "amenity": "restaurant", "cuisine": "sushi" }, "geometry": { "type": "Point", "coordinates": [ -104.9976344, 39.7481958 ] } },
{ "type": "Feature", "properties": { "id": 1393672678, "name": "Tom's Urban", "addr:housenumber": "1460", "addr:street": "Larimer Street", "addr:postcode": "80202", "addr:city": "Denver", "amenity": "restaurant", "cuisine": null }, "geometry": { "type": "Point", "coordinates": [ -104.9986355, 39.7480723 ] } },
{ "type": "Feature", "properties": { "id": 1393672685, "name": "Ocean Prime", "addr:housenumber": "1465", "addr:street": "Larimer Street", "addr:postcode": "80202", "addr:city": "Denver", "amenity": "restaurant", "cuisine": null }, "geometry": { "type": "Point", "coordinates": [ -104.9989358, 39.748283 ] } },
{ "type": "Feature", "properties": { "id": 1412803013, "name": "Panzano", "addr:housenumber": "909", "addr:street": "17th Street", "addr:postcode": "80202", "addr:city": "Denver", "amenity": "restaurant", "cuisine": null }, "geometry": { "type": "Point", "coordinates": [ -104.9928398, 39.7477194 ] } },
{ "type": "Feature", "properties": { "id": 1422655212, "name": "Delaney's", "addr:housenumber": "1805", "addr:street": "Blake Street", "addr:postcode": "80202", "addr:city": null, "amenity": "bar", "cuisine": null }, "geometry": { "type": "Point", "coordinates": [ -104.9966183, 39.7527555 ] } },
{ "type": "Feature", "properties": { "id": 1430623629, "name": "Gaslamp", "addr:housenumber": "1439", "addr:street": "Market Street", "addr:postcode": "80202", "addr:city": "Denver", "amenity": "pub", "cuisine": null }, "geometry": { "type": "Point", "coordinates": [ -105.0001483, 39.7486304 ] } },
{ "type": "Feature", "properties": { "id": 1431403001, "name": "Brothers Bar & Grill", "addr:housenumber": "1920", "addr:street": "Market Street", "addr:postcode": "80202", "addr:city": "Denver", "amenity": "pub", "cuisine": null }, "geometry": { "type": "Point", "coordinates": [ -104.9939723, 39.7529278 ] } },
{ "type": "Feature", "properties": { "id": 1605501210, "name": "Chloe", "addr:housenumber": "1445", "addr:street": "Market Street", "addr:postcode": "80202", "addr:city": "Denver", "amenity": "restaurant", "cuisine": null }, "geometry": { "type": "Point", "coordinates": [ -104.9997794, 39.7489287 ] } },
{ "type": "Feature", "properties": { "id": 1684184179, "name": "Coohills", "addr:housenumber": "1400", "addr:street": "Wewatta Street", "addr:postcode": "80202", "addr:city": "Denver", "amenity": "restaurant", "cuisine": "french" }, "geometry": { "type": "Point", "coordinates": [ -105.0038375, 39.7506813 ] } },
{ "type": "Feature", "properties": { "id": 1834896902, "name": "The Squeaky Bean", "addr:housenumber": "1501", "addr:street": "Wynkoop Street", "addr:postcode": "80202", "addr:city": "Denver", "amenity": "restaurant", "cuisine": null }, "geometry": { "type": "Point", "coordinates": [ -105.00182, 39.7509551 ] } },
{ "type": "Feature", "properties": { "id": 1991823857, "name": "Tuscany Coffee And Deli", "addr:housenumber": "1600", "addr:street": "Stout Street", "addr:postcode": "80202", "addr:city": "Denver", "amenity": "cafe", "cuisine": "coffee_shop" }, "geometry": { "type": "Point", "coordinates": [ -104.992681, 39.745879 ] } }
]
}
